{"type": "FeatureCollection", "features": [ {"type": "Feature", "properties": {"norad_id": 33867, "name": "IRIDIUM 33 DEB", "group": "iridium-33-debris", "lat": 20.906401348108464, "lon": -14.86824076560794, "alt_km": 174.33362670382758, "timestamp": "2025-12-24T16:52:41.921065+00:00", "meta": {"OBJECT_NAME": "IRIDIUM 33 DEB", "OBJECT_ID": "1997-051AL", "EPOCH": "2025-12-23T20:01:30.593568", "MEAN_MOTION": 16.07905619, "ECCENTRICITY": 0.00123823, "INCLINATION": 86.3716, "RA_OF_ASC_NODE": 344.225, "ARG_OF_PERICENTER": 111.097, "MEAN_ANOMALY": 249.1645, "EPHEMERIS_TYPE": 0, "CLASSIFICATION_TYPE": "U", "NORAD_CAT_ID": 33867, "ELEMENT_SET_NO": 999, "REV_AT_EPOCH": 89686, "BSTAR": 0.010041813, "MEAN_MOTION_DOT": 0.05649041, "MEAN_MOTION_DDOT": 0.086118142}, "tle": {"line1": "1 33867U 97051AL  25357.83438187  .05649041  86118-1  10042-1 0  9995", "line2": "2 33867  86.3716 344.2250 0012382 111.0970 249.1645 16.07905619896867"}}, "geometry": {"type": "Point", "coordinates": [-14.86824076560794, 20.906401348108464]}}, {"type": "Feature", "properties": {"norad_id": 33870, "name": "IRIDIUM 33 DEB", "group": "iridium-33-debris", "lat": -80.45143091048614, "lon": 30.98173751714939, "alt_km": 758.5662611928938, "timestamp": "2025-12-24T16:52:41.921080+00:00", "meta": {"OBJECT_NAME": "IRIDIUM 33 DEB", "OBJECT_ID": "1997-051AP", "EPOCH": "2025-12-24T04:15:06.179904", "MEAN_MOTION": 14.45905972, "ECCENTRICITY": 0.00225815, "INCLINATION": 86.3733, "RA_OF_ASC_NODE": 53.3579, "ARG_OF_PERICENTER": 141.805, "MEAN_ANOMALY": 280.099, "EPHEMERIS_TYPE": 0, "CLASSIFICATION_TYPE": "U", "NORAD_CAT_ID": 33870, "ELEMENT_SET_NO": 999, "REV_AT_EPOCH": 88302, "BSTAR": 0.00071294311, "MEAN_MOTION_DOT": 2.561e-05, "MEAN_MOTION_DDOT": 0}, "tle": {"line1": "1 33870U 97051AP  25358.17715486  .00002561  00000+0  71294-3 0  9994", "line2": "2 33870  86.3733  53.3579 0022581 141.8050 280.0990 14.45905972883027"}}, "geometry": {"type": "Point", "coordinates": [30.98173751714939, -80.45143091048614]}}, {"type": "Feature", "properties": {"norad_id": 33881, "name": "IRIDIUM 33 DEB", "group": "iridium-33-debris", "lat": -71.61033622929715, "lon": -67.49836845351952, "alt_km": 729.6737108352627, "timestamp": "2025-12-24T16:52:41.921091+00:00", "meta": {"OBJECT_NAME": "IRIDIUM 33 DEB", "OBJECT_ID": "1997-051BA", "EPOCH": "2025-12-24T07:44:10.303872", "MEAN_MOTION": 14.56777348, "ECCENTRICITY": 0.00611531, "INCLINATION": 86.386, "RA_OF_ASC_NODE": 101.7083, "ARG_OF_PERICENTER": 137.2942, "MEAN_ANOMALY": 277.57, "EPHEMERIS_TYPE": 0, "CLASSIFICATION_TYPE": "U", "NORAD_CAT_ID": 33881, "ELEMENT_SET_NO": 999, "REV_AT_EPOCH": 87669, "BSTAR": 0.0022945952, "MEAN_MOTION_DOT": 0.00010557, "MEAN_MOTION_DDOT": 0}, "tle": {"line1": "1 33881U 97051BA  25358.32234148  .00010557  00000+0  22946-2 0  9997", "line2": "2 33881  86.3860 101.7083 0061153 137.2942 277.5700 14.56777348876696"}}, "geometry": {"type": "Point", "coordinates": [-67.49836845351952, -71.61033622929715]}}, {"type": "Feature", "properties": {"norad_id": 33884, "name": "IRIDIUM 33 DEB", "group": "iridium-33-debris", "lat": 15.186646424383012, "lon": 5.404093121851401, "alt_km": 638.5883892520724, "timestamp": "2025-12-24T16:52:41.921103+00:00", "meta": {"OBJECT_NAME": "IRIDIUM 33 DEB", "OBJECT_ID": "1997-051BD", "EPOCH": "2025-12-24T07:08:21.813216", "MEAN_MOTION": 14.77652131, "ECCENTRICITY": 0.00088851, "INCLINATION": 86.3696, "RA_OF_ASC_NODE": 4.5998, "ARG_OF_PERICENTER": 278.0535, "MEAN_ANOMALY": 99.9801, "EPHEMERIS_TYPE": 0, "CLASSIFICATION_TYPE": "U", "NORAD_CAT_ID": 33884, "ELEMENT_SET_NO": 999, "REV_AT_EPOCH": 89018, "BSTAR": 0.0016922324, "MEAN_MOTION_DOT": 0.00012148, "MEAN_MOTION_DDOT": 0}, "tle": {"line1": "1 33884U 97051BD  25358.29747469  .00012148  00000+0  16922-2 0  9996", "line2": "2 33884  86.3696   4.5998 0008885 278.0535  99.9801 14.77652131890189"}}, "geometry": {"type": "Point", "coordinates": [5.404093121851401, 15.186646424383012]}}, {"type": "Feature", "properties": {"norad_id": 33886, "name": "IRIDIUM 33 DEB", "group": "iridium-33-debris", "lat": -42.92863469225866, "lon": 58.81884762657838, "alt_km": 782.6920488004816, "timestamp": "2025-12-24T16:52:41.921114+00:00", "meta": {"OBJECT_NAME": "IRIDIUM 33 DEB", "OBJECT_ID": "1997-051BF", "EPOCH": "2025-12-24T03:47:51.512640", "MEAN_MOTION": 14.36064559, "ECCENTRICITY": 0.0013372, "INCLINATION": 86.382, "RA_OF_ASC_NODE": 62.4223, "ARG_OF_PERICENTER": 201.1146, "MEAN_ANOMALY": 179.8883, "EPHEMERIS_TYPE": 0, "CLASSIFICATION_TYPE": "U", "NORAD_CAT_ID": 33886, "ELEMENT_SET_NO": 999, "REV_AT_EPOCH": 88216, "BSTAR": 0.00017797246, "MEAN_MOTION_DOT": 5.38e-06, "MEAN_MOTION_DDOT": 0}, "tle": {"line1": "1 33886U 97051BF  25358.15823510  .00000538  00000+0  17797-3 0  9997", "line2": "2 33886  86.3820  62.4223 0013372 201.1146 179.8883 14.36064559882169"}}, "geometry": {"type": "Point", "coordinates": [58.81884762657838, -42.92863469225866]}}, {"type": "Feature", "properties": {"norad_id": 33887, "name": "IRIDIUM 33 DEB", "group": "iridium-33-debris", "lat": -56.42124154384137, "lon": -7.350868876992913, "alt_km": 777.0084982471853, "timestamp": "2025-12-24T16:52:41.921128+00:00", "meta": {"OBJECT_NAME": "IRIDIUM 33 DEB", "OBJECT_ID": "1997-051BG", "EPOCH": "2025-12-24T07:11:17.955168", "MEAN_MOTION": 14.37230926, "ECCENTRICITY": 0.0005704, "INCLINATION": 86.3043, "RA_OF_ASC_NODE": 358.4102, "ARG_OF_PERICENTER": 182.2132, "MEAN_ANOMALY": 193.5108, "EPHEMERIS_TYPE": 0, "CLASSIFICATION_TYPE": "U", "NORAD_CAT_ID": 33887, "ELEMENT_SET_NO": 999, "REV_AT_EPOCH": 88331, "BSTAR": 0.00014200171, "MEAN_MOTION_DOT": 4.42e-06, "MEAN_MOTION_DDOT": 0}, "tle": {"line1": "1 33887U 97051BG  25358.29951337  .00000442  00000+0  14200-3 0  9992", "line2": "2 33887  86.3043 358.4102 0005704 182.2132 193.5108 14.37230926883310"}}, "geometry": {"type": "Point", "coordinates": [-7.350868876992913, -56.42124154384137]}}, {"type": "Feature", "properties": {"norad_id": 33953, "name": "IRIDIUM 33 DEB", "group": "iridium-33-debris", "lat": -39.680196015367606, "lon": -128.405824415825, "alt_km": 725.7666558964002, "timestamp": "2025-12-24T16:52:41.921142+00:00", "meta": {"OBJECT_NAME": "IRIDIUM 33 DEB", "OBJECT_ID": "1997-051BN", "EPOCH": "2025-12-24T04:36:07.382304", "MEAN_MOTION": 14.55427227, "ECCENTRICITY": 0.00176564, "INCLINATION": 86.3831, "RA_OF_ASC_NODE": 48.8082, "ARG_OF_PERICENTER": 67.7318, "MEAN_ANOMALY": 353.4963, "EPHEMERIS_TYPE": 0, "CLASSIFICATION_TYPE": "U", "NORAD_CAT_ID": 33953, "ELEMENT_SET_NO": 999, "REV_AT_EPOCH": 88470, "BSTAR": 0.0011715039, "MEAN_MOTION_DOT": 5.121e-05, "MEAN_MOTION_DDOT": 0}, "tle": {"line1": "1 33953U 97051BN  25358.19175211  .00005121  00000+0  11715-2 0  9990", "line2": "2 33953  86.3831  48.8082 0017656  67.7318 353.4963 14.55427227884700"}}, "geometry": {"type": "Point", "coordinates": [-128.405824415825, -39.680196015367606]}}, {"type": "Feature", "properties": {"norad_id": 33960, "name": "IRIDIUM 33 DEB", "group": "iridium-33-debris", "lat": -58.3440466249964, "lon": 109.97221181749647, "alt_km": 623.1317308345779, "timestamp": "2025-12-24T16:52:41.921153+00:00", "meta": {"OBJECT_NAME": "IRIDIUM 33 DEB", "OBJECT_ID": "1997-051BV", "EPOCH": "2025-12-24T06:39:02.863872", "MEAN_MOTION": 14.85753988, "ECCENTRICITY": 0.00071775, "INCLINATION": 86.2538, "RA_OF_ASC_NODE": 284.0729, "ARG_OF_PERICENTER": 42.044, "MEAN_ANOMALY": 78.6082, "EPHEMERIS_TYPE": 0, "CLASSIFICATION_TYPE": "U", "NORAD_CAT_ID": 33960, "ELEMENT_SET_NO": 999, "REV_AT_EPOCH": 89038, "BSTAR": 0.003360952, "MEAN_MOTION_DOT": 0.00029315, "MEAN_MOTION_DDOT": 0}, "tle": {"line1": "1 33960U 97051BV  25358.27711648  .00029315  00000+0  33610-2 0  9996", "line2": "2 33960  86.2538 284.0729 0007177  42.0440  78.6082 14.85753988890380"}}, "geometry": {"type": "Point", "coordinates": [109.97221181749647, -58.3440466249964]}}, {"type": "Feature", "properties": {"norad_id": 33966, "name": "IRIDIUM 33 DEB", "group": "iridium-33-debris", "lat": 81.47311216752666, "lon": -164.0023112275568, "alt_km": 715.7957256995242, "timestamp": "2025-12-24T16:52:41.921165+00:00", "meta": {"OBJECT_NAME": "IRIDIUM 33 DEB", "OBJECT_ID": "1997-051CB", "EPOCH": "2025-12-24T03:25:26.789088", "MEAN_MOTION": 14.49636291, "ECCENTRICITY": 0.00086507, "INCLINATION": 86.391, "RA_OF_ASC_NODE": 41.133, "ARG_OF_PERICENTER": 152.8356, "MEAN_ANOMALY": 261.2769, "EPHEMERIS_TYPE": 0, "CLASSIFICATION_TYPE": "U", "NORAD_CAT_ID": 33966, "ELEMENT_SET_NO": 999, "REV_AT_EPOCH": 88607, "BSTAR": 0.00047010387, "MEAN_MOTION_DOT": 1.826e-05, "MEAN_MOTION_DDOT": 0}, "tle": {"line1": "1 33966U 97051CB  25358.14267117  .00001826  00000+0  47010-3 0  9992", "line2": "2 33966  86.3910  41.1330 0008650 152.8356 261.2769 14.49636291886074"}}, "geometry": {"type": "Point", "coordinates": [-164.0023112275568, 81.47311216752666]}}, {"type": "Feature", "properties": {"norad_id": 34071, "name": "IRIDIUM 33 DEB", "group": "iridium-33-debris", "lat": 20.98777884938537, "lon": -168.77764653594352, "alt_km": 726.4361747981229, "timestamp": "2025-12-24T16:52:41.921176+00:00", "meta": {"OBJECT_NAME": "IRIDIUM 33 DEB", "OBJECT_ID": "1997-051CE", "EPOCH": "2025-12-24T01:14:15.701568", "MEAN_MOTION": 14.49512497, "ECCENTRICITY": 0.0009894, "INCLINATION": 86.3449, "RA_OF_ASC_NODE": 12.9107, "ARG_OF_PERICENTER": 77.4352, "MEAN_ANOMALY": 282.7959, "EPHEMERIS_TYPE": 0, "CLASSIFICATION_TYPE": "U", "NORAD_CAT_ID": 34071, "ELEMENT_SET_NO": 999, "REV_AT_EPOCH": 88498, "BSTAR": 0.0006196688, "MEAN_MOTION_DOT": 2.395e-05, "MEAN_MOTION_DDOT": 0}, "tle": {"line1": "1 34071U 97051CE  25358.05157062  .00002395  00000+0  61967-3 0  9996", "line2": "2 34071  86.3449  12.9107 0009894  77.4352 282.7959 14.49512497884984"}}, "geometry": {"type": "Point", "coordinates": [-168.77764653594352, 20.98777884938537]}}]}